NORAD_CAT_ID,OBJECT_NAME,OBJECT_TYPE,EPOCH,MEAN_MOTION,ECCENTRICITY,INCLINATION,RA_OF_ASC_NODE,ARG_OF_PERICENTER,MEAN_ANOMALY,BSTAR,MEAN_MOTION_DOT,MEAN_MOTION_DDOT,TLE_LINE0,TLE_LINE1,TLE_LINE2,SEMIMAJOR_AXIS,PERIOD,APOGEE,PERIGEE,DECAYED
51741.0,STARLINK-3520,PAYLOAD,2022-10-19 14:35:09,15.0883579,0.0001547,53.2176,112.5962,58.0387,302.0756,0.00014709,2.053e-05,0.0,0 STARLINK-3520,1 51741U 22016AD  22292.60774440  .00002053  00000-0  14709-3 0  9992,2 51741  53.2176 112.5962 0001547  58.0387 302.0756 15.08835790 36804,6917.893,95.438,540.828,538.688,0.0
51741.0,STARLINK-3520,PAYLOAD,2022-10-20 19:12:05,15.08840333,0.0001588,53.2177,107.2436,58.4236,301.6911,5.9732e-05,6.63e-06,0.0,0 STARLINK-3520,1 51741U 22016AD  22293.80006692  .00000663  00000-0  59732-4 0  9993,2 51741  53.2177 107.2436 0001588  58.4236 301.6911 15.08840333 38094,6917.879,95.438,540.8430000000002,538.646,0.0
51741.0,STARLINK-3520,PAYLOAD,2022-10-20 20:47:28,15.08841851,0.0001592,53.2176,106.9461,56.6953,303.4192,6.8853e-05,8.08e-06,0.0,0 STARLINK-3520,1 51741U 22016AD  22293.86630572  .00000808  00000-0  68853-4 0  9994,2 51741  53.2176 106.9461 0001592  56.6953 303.4192 15.08841851 36992,6917.875,95.437,540.841,538.638,0.0
51741.0,STARLINK-3520,PAYLOAD,2022-10-21 11:05:56,15.08849145,0.0001547,53.2176,104.2701,55.77,304.3439,9.2801e-05,1.19e-05,0.0,0 STARLINK-3520,1 51741U 22016AD  22294.46245836  .00001190  00000-0  92801-4 0  9991,2 51741  53.2176 104.2701 0001547  55.7700 304.3439 15.08849145 38192,6917.852,95.437,540.788,538.6469999999998,0.0
51741.0,STARLINK-3520,PAYLOAD,2022-10-21 19:02:52,15.08836418,0.0001541999999999,53.2176,102.7831,54.9202,305.1934,9.527e-05,1.228e-05,0.0,0 STARLINK-3520,1 51741U 22016AD  22294.79366701  .00001228  00000-0  95270-4 0  9997,2 51741  53.2176 102.7831 0001542  54.9202 305.1934 15.08836418 38246,6917.891,95.438,540.823,538.69,0.0
51741.0,STARLINK-3520,PAYLOAD,2022-10-22 12:32:06,15.08845833,0.0001652,53.2164,99.5123,57.43,302.6852,0.00015964,2.254e-05,0.0,0 STARLINK-3520,1 51741U 22016AD  22295.52230250  .00002254  00000-0  15964-3 0  9999,2 51741  53.2164  99.5123 0001652  57.4300 302.6852 15.08845833 37240,6917.863,95.437,540.87,538.585,0.0
51741.0,STARLINK-3520,PAYLOAD,2022-10-22 20:29:02,15.08852528,0.0001703,53.2161,98.0256,56.9646,303.151,0.00047966,7.357e-05,0.0,0 STARLINK-3520,1 51741U 22016AD  22295.85350033  .00007357  00000-0  47966-3 0  9993,2 51741  53.2161  98.0256 0001703  56.9646 303.1510 15.08852528 37293,6917.842,95.437,540.885,538.529,0.0
51741.0,STARLINK-3520,PAYLOAD,2022-10-23 12:22:53,15.08843723,0.0001736,53.2164,95.0519,56.6285,303.4873,0.00011779,1.587e-05,0.0,0 STARLINK-3520,1 51741U 22016AD  22296.51590012  .00001587  00000-0  11779-3 0  9992,2 51741  53.2164  95.0519 0001736  56.6285 303.4873 15.08843723 37390,6917.869000000002,95.437,540.935,538.533,0.0
51741.0,STARLINK-3520,PAYLOAD,2022-10-23 20:19:49,15.08848234,0.0001726,53.2167,93.565,56.097,304.0186,0.00018008,2.58e-05,0.0,0 STARLINK-3520,1 51741U 22016AD  22296.84709794  .00002580  00000-0  18008-3 0  9993,2 51741  53.2167  93.5650 0001726  56.0970 304.0186 15.08848234 37448,6917.855,95.437,540.914,538.526,0.0
51741.0,STARLINK-3520,PAYLOAD,2022-10-24 12:13:40,15.08837102,0.0001665999999999,53.2171,90.5915,57.0334,303.0819,-1.1195e-05,-4.66e-06,0.0,0 STARLINK-3520,1 51741U 22016AD  22297.50950044 -.00000466  00000-0 -11195-4 0  9997,2 51741  53.2171  90.5915 0001666  57.0334 303.0819 15.08837102 37547,6917.889,95.438,540.9069999999998,538.602,0.0
51741.0,STARLINK-3520,PAYLOAD,2022-10-24 20:10:37,15.0882548,0.0001608,53.2182,89.1049,53.9889,306.1252,-9.4141e-05,-1.785e-05,0.0,0 STARLINK-3520,1 51741U 22016AD  22297.84071356 -.00001785  00000-0 -94141-4 0  9991,2 51741  53.2182  89.1049 0001608  53.9889 306.1252 15.08825480 37593,6917.925,95.438,540.9019999999998,538.677,0.0
51741.0,STARLINK-3520,PAYLOAD,2022-10-24 21:46:00,15.08826437,0.0001616,53.2183,88.8075,54.2291,305.8851,-0.00010025,-1.883e-05,0.0,0 STARLINK-3520,1 51741U 22016AD  22297.90695341 -.00001883  00000-0 -10025-3 0  9991,2 51741  53.2183  88.8075 0001616  54.2291 305.8851 15.08826437 38718,6917.922,95.438,540.905,538.669,0.0
51741.0,STARLINK-3520,PAYLOAD,2022-10-25 10:29:05,15.08849107,0.0001806,53.2183,86.4285,51.3761,308.7393,-0.00036416,-6.081e-05,0.0,0 STARLINK-3520,1 51741U 22016AD  22298.43686712 -.00006081  00000-0 -36416-3 0  9999,2 51741  53.2183  86.4285 0001806  51.3761 308.7393 15.08849107 38796,6917.853,95.437,540.967,538.4680000000002,0.0
51741.0,STARLINK-3520,PAYLOAD,2022-10-25 12:04:29,15.08826571,0.0001587,53.2183,86.1312,53.88399999999999,306.2298,-3.8067e-05,-8.94e-06,0.0,0 STARLINK-3520,1 51741U 22016AD  22298.50311356 -.00000894  00000-0 -38067-4 0  9997,2 51741  53.2183  86.1312 0001587  53.8840 306.2298 15.08826571 37690,6917.920999999999,95.438,540.884,538.689,0.0
51741.0,STARLINK-3520,PAYLOAD,2022-10-25 18:26:01,15.08829112,0.0001588999999999,53.2183,84.9418,52.6628,307.4508,-1.5708e-05,-5.38e-06,0.0,0 STARLINK-3520,1 51741U 22016AD  22298.76807319 -.00000538  00000-0 -15708-4 0  9996,2 51741  53.2183  84.9418 0001589  52.6628 307.4508 15.08829112 38845,6917.9140000000025,95.438,540.878,538.679,0.0
51741.0,STARLINK-3520,PAYLOAD,2022-10-26 11:55:15,15.08836627,0.0001584,53.2183,81.671,51.5506,308.5628,4.7953e-05,4.75e-06,0.0,0 STARLINK-3520,1 51741U 22016AD  22299.49671064  .00000475  00000-0  47953-4 0  9998,2 51741  53.2183  81.6710 0001584  51.5506 308.5628 15.08836627 38958,6917.891,95.438,540.851,538.66,0.0
51741.0,STARLINK-3520,PAYLOAD,2022-10-26 21:27:35,15.08821322,0.0001715,53.2185,79.887,52.5758,307.539,0.0004378,6.683e-05,0.0,0 STARLINK-3520,1 51741U 22016AD  22299.89415590  .00006683  00000-0  43780-3 0  9992,2 51741  53.2185  79.8870 0001715  52.5758 307.5390 15.08821322 37907,6917.937,95.439,540.989,538.616,0.0
51741.0,STARLINK-3520,PAYLOAD,2022-10-27 11:46:03,15.08838303,0.0001549,53.218,77.2104,46.8931,313.219,0.0001599,2.258e-05,0.0,0 STARLINK-3520,1 51741U 22016AD  22300.49031368  .00002258  00000-0  15990-3 0  9994,2 51741  53.2180  77.2104 0001549  46.8931 313.2190 15.08838303 37996,6917.886,95.438,540.822,538.679,0.0
51741.0,STARLINK-3520,PAYLOAD,2022-10-27 18:07:35,15.08849212,0.0001592,53.2179,76.021,46.5815,313.5309,0.00025491,3.772e-05,0.0,0 STARLINK-3520,1 51741U 22016AD  22300.75526924  .00003772  00000-0  25491-3 0  9999,2 51741  53.2179  76.0210 0001592  46.5815 313.5309 15.08849212 38037,6917.852,95.437,540.819,538.616,0.0
51741.0,STARLINK-3520,PAYLOAD,2022-10-27 21:18:21,15.08854074,0.0001568,53.2178,75.4262,46.2846,313.8276,0.00028202,4.205e-05,0.0,0 STARLINK-3520,1 51741U 22016AD  22300.88774632  .00004205  00000-0  28202-3 0  9999,2 51741  53.2178  75.4262 0001568  46.2846 313.8276 15.08854074 39163,6917.837,95.437,540.7869999999998,538.618,0.0
51741.0,STARLINK-3520,PAYLOAD,2022-10-28 13:12:12,15.08853755,0.0001578,53.2178,72.4527,45.26,314.8520000000001,0.00033773,5.093e-05,0.0,0 STARLINK-3520,1 51741U 22016AD  22301.55014171  .00005093  00000-0  33773-3 0  9994,2 51741  53.2178  72.4527 0001578  45.2600 314.8520 15.08853755 38158,6917.8380000000025,95.437,540.795,538.612,0.0
51741.0,STARLINK-3520,PAYLOAD,2022-10-28 17:58:21,15.08854969,0.0001575999999999,53.2178,71.5607,46.0701,314.0422,0.00030027,4.496e-05,0.0,0 STARLINK-3520,1 51741U 22016AD  22301.74886049  .00004496  00000-0  30027-3 0  9991,2 51741  53.2178  71.5607 0001576  46.0701 314.0422 15.08854969 38180,6917.835,95.437,540.79,538.609,0.0
51741.0,STARLINK-3520,PAYLOAD,2022-10-28 21:09:07,15.08853047,0.0001541999999999,53.2179,70.9657,44.7911,315.3205,0.00022608,3.313e-05,0.0,0 STARLINK-3520,1 51741U 22016AD  22301.88133996  .00003313  00000-0  22608-3 0  9995,2 51741  53.2179  70.9657 0001542  44.7911 315.3205 15.08853047 39315,6917.840999999999,95.437,540.7719999999998,538.639,0.0
51741.0,STARLINK-3520,PAYLOAD,2022-10-29 08:16:49,15.08859484,0.0001946,53.2177,68.8846,56.1011,304.0166,0.00044349,6.781e-05,0.0,0 STARLINK-3520,1 51741U 22016AD  22302.34501697  .00006781  00000-0  44349-3 0  9992,2 51741  53.2177  68.8846 0001946  56.1011 304.0166 15.08859484 38271,6917.821,95.436,541.0319999999998,538.34,0.0
51741.0,STARLINK-3520,PAYLOAD,2022-10-29 17:49:08,15.08849946,0.000129,53.2179,67.1009,43.6599,316.4495,0.00012469,1.698e-05,0.0,0 STARLINK-3520,1 51741U 22016AD  22302.74245533  .00001698  00000-0  12469-3 0  9990,2 51741  53.2179  67.1009 0001290  43.6599 316.4495 15.08849946 38331,6917.85,95.437,540.607,538.823,0.0
51741.0,STARLINK-3520,PAYLOAD,2022-10-30 11:18:22,15.08847989,0.0001402,53.2189,63.828,67.2087,292.9053,0.00018953,2.730000000000001e-05,0.0,0 STARLINK-3520,1 51741U 22016AD  22303.47109628  .00002730  00000-0  18953-3 0  9997,2 51741  53.2189  63.8280 0001402  67.2087 292.9053 15.08847989 38440,6917.856,95.437,540.691,538.751,0.0
51741.0,STARLINK-3520,PAYLOAD,2022-10-30 20:50:41,15.088371,0.0001740999999999,53.2181,62.0459,49.0886,311.0257,5.3956e-06,-2.02e-06,0.0,0 STARLINK-3520,1 51741U 22016AD  22303.86854139 -.00000202  00000-0  53956-5 0  9991,2 51741  53.2181  62.0459 0001741  49.0886 311.0257 15.08837100 38502,6917.889,95.438,540.9590000000002,538.55,0.0
51741.0,STARLINK-3520,PAYLOAD,2022-10-31 07:58:23,15.08856394,0.000166,53.2187,59.9641,57.7267,302.3886,0.00074688,0.00011624,0.0,0 STARLINK-3520,1 51741U 22016AD  22304.33221869  .00011624  00000-0  74688-3 0  9994,2 51741  53.2187  59.9641 0001660  57.7267 302.3886 15.08856394 38579,6917.83,95.437,540.844,538.547,0.0
51741.0,STARLINK-3520,PAYLOAD,2022-10-31 20:41:29,15.08821727,0.0002025,53.2192,57.5856,41.8278,318.2868,-0.00017945,-3.142e-05,0.0,0 STARLINK-3520,1 51741U 22016AD  22304.86215176 -.00003142  00000-0 -17945-3 0  9997,2 51741  53.2192  57.5856 0002025  41.8278 318.2868 15.08821727 39769,6917.936,95.439,541.202,538.4,0.0
